[
    {
        "CCSDS_OMM_VERS": "3.0",
        "COMMENT": "GENERATED VIA SPACE-TRACK.ORG API",
        "CREATION_DATE": "2025-02-28T19:05:01",
        "ORIGINATOR": "18 SPCS",
        "OBJECT_NAME": "QZS-2",
        "OBJECT_ID": "2017-028A",
        "CENTER_NAME": "EARTH",
        "REF_FRAME": "TEME",
        "TIME_SYSTEM": "UTC",
        "MEAN_ELEMENT_THEORY": "SGP4",
        "EPOCH": "2025-02-28T05:50:55.755168",
        "MEAN_MOTION": "1.00264452",
        "ECCENTRICITY": "0.07461650",
        "INCLINATION": "40.1655",
        "RA_OF_ASC_NODE": "250.0540",
        "ARG_OF_PERICENTER": "270.2490",
        "MEAN_ANOMALY": "227.1313",
        "EPHEMERIS_TYPE": "0",
        "CLASSIFICATION_TYPE": "U",
        "NORAD_CAT_ID": "42738",
        "ELEMENT_SET_NO": "999",
        "REV_AT_EPOCH": "287",
        "BSTAR": "0.00000000000000",
        "MEAN_MOTION_DOT": "-0.00000113",
        "MEAN_MOTION_DDOT": "0.0000000000000",
        "SEMIMAJOR_AXIS": "42166.788",
        "PERIOD": "1436.202",
        "APOAPSIS": "38934.991",
        "PERIAPSIS": "32642.315",
        "OBJECT_TYPE": "PAYLOAD",
        "RCS_SIZE": "LARGE",
        "COUNTRY_CODE": "JPN",
        "LAUNCH_DATE": "2017-06-01",
        "SITE": "TNSTA",
        "DECAY_DATE": null,
        "FILE": "4655208",
        "GP_ID": "281920402",
        "TLE_LINE0": "0 QZS-2",
        "TLE_LINE1": "1 42738U 17028A   25059.24370087 -.00000113  00000-0  00000-0 0  9990",
        "TLE_LINE2": "2 42738  40.1655 250.0540 0746165 270.2490 227.1313  1.00264452  2876"
    }
]